[{"OBJECT_NAME":"STARLINK-6202","OBJECT_ID":"2023-083W","EPOCH":"2026-03-09T02:08:13.087968","MEAN_MOTION":15.02535086,"ECCENTRICITY":6.907e-5,"INCLINATION":42.9997,"RA_OF_ASC_NODE":84.7262,"ARG_OF_PERICENTER":287.0195,"MEAN_ANOMALY":73.0572,"EPHEMERIS_TYPE":0,"CLASSIFICATION_TYPE":"U","NORAD_CAT_ID":56896,"ELEMENT_SET_NO":999,"REV_AT_EPOCH":15169,"BSTAR":2.9712e-5,"MEAN_MOTION_DOT":1.98e-6,"MEAN_MOTION_DDOT":0},{"OBJECT_NAME":"COSMOS 2251 DEB","OBJECT_ID":"1993-036BSM","EPOCH":"2026-03-05T18:25:12.242784","MEAN_MOTION":14.77934954,"ECCENTRICITY":0.01163021,"INCLINATION":73.9376,"RA_OF_ASC_NODE":193.5346,"ARG_OF_PERICENTER":49.2659,"MEAN_ANOMALY":311.8542,"EPHEMERIS_TYPE":0,"CLASSIFICATION_TYPE":"U","NORAD_CAT_ID":38197,"ELEMENT_SET_NO":999,"REV_AT_EPOCH":86980,"BSTAR":0.0037051809,"MEAN_MOTION_DOT":0.00029983,"MEAN_MOTION_DDOT":0}]
